#aV2008  4 27  0  0   .00000000      96 DD+AD WGS84 FIT  NGA
## 1477       .00000000   900.00000000 54583  .0000000000000
+   31     2  3  4  5  6  7  8  9 10 11 12 13 14 15 16 17 18
+         19 20 21 22 23 24 25 26 27 28 29 30 31 32  0  0  0
+          0  0  0  0  0  0  0  0  0  0  0  0  0  0  0  0  0
+          0  0  0  0  0  0  0  0  0  0  0  0  0  0  0  0  0
+          0  0  0  0  0  0  0  0  0  0  0  0  0  0  0  0  0
++         0  0  0  0  0  0  0  0  0  0  0  0  0  0  0  0  0
++         0  0  0  0  0  0  0  0  0  0  0  0  0  0  0  0  0
++         0  0  0  0  0  0  0  0  0  0  0  0  0  0  0  0  0
++         0  0  0  0  0  0  0  0  0  0  0  0  0  0  0  0  0
++         0  0  0  0  0  0  0  0  0  0  0  0  0  0  0  0  0
%c cc cc ccc ccc cccc cccc cccc cccc ccccc ccccc ccccc ccccc
%c cc cc ccc ccc cccc cccc cccc cccc ccccc ccccc ccccc ccccc
%f  0.0000000  0.000000000  0.00000000000  0.000000000000000
%f  0.0000000  0.000000000  0.00000000000  0.000000000000000
%i    0    0    0    0      0      0      0      0         0
%i    0    0    0    0      0      0      0      0         0
/*      NGA, ST. LOUIS,MO.                                  
/*   EPHEMERIS COMPUTED FROM  3 DAYS OF DATA                
/* CCCCCCCCCCCCCCCCCCCCCCCCCCCCCCCCCCCCCCCCCCCCCCCCCCCCCCCCC
/* CCCCCCCCCCCCCCCCCCCCCCCCCCCCCCCCCCCCCCCCCCCCCCCCCCCCCCCCC
*  2008  4 27 17 45   .00000000                                                 
P  2  16039.604587   1378.501029 -21247.126809    195.056831                    
V  2  -9316.068804  25041.010154  -5797.433462       .088755                    
P  3 -21094.867978  -5796.088694  15043.136154    220.299657                    
V  3 -11541.185884 -15946.688164 -21608.426567       .053825                    
P  4  10730.968665  12920.151154 -20597.281668    -55.120464                    
V  4 -11279.139458  23542.862620   9293.752658      -.080180                    
P  5  14242.940848 -15451.374228 -16423.722467    759.458469                    
V  5  20462.882734  -2325.282033  20406.722907       .087682                    
P  6 -19404.804530 -17470.182284   5032.282315    112.445242                    
V  6  -1225.058330  -7042.157102 -30272.913415       .107334                    
P  7  -6892.223127  25174.441030   4705.986332    -57.994952                    
V  7  -4867.634343   4494.704721 -31072.851211       .106866                    
P  8   2356.220735  20451.940392  16422.032683   -150.615978                    
V  8 -10658.629331  18352.238586 -21670.814137      -.015246                    
P  9  14131.815182 -20181.643778   9073.761842    121.915077                    
V  9  -1959.214816  12557.366146  29158.623374       .018046                    
P 10  26552.771932   -536.760255  -3248.122466     -1.011771                    
V 10  -3643.448716   2800.824213 -31257.777043      -.003009                    
P 11 -11112.825009  22579.776072   7814.545886     26.066460                    
V 11  -2693.625760 -11114.148981  28074.303882      -.002866                    
P 12  19353.111734 -11981.992843 -13516.283853   -359.134020                    
V 12  17494.264025     -9.646348  24973.438271      -.000713                    
P 13   3170.440157  21709.456624 -15105.768203    252.654556                    
V 13 -11782.585387 -14824.597416 -23937.425733       .018342                    
P 14 -15244.554629 -21808.340815    603.290785   -272.859052                    
V 14   1858.756831   -548.879820  32297.039517       .040767                    
P 15  15965.419530  -3532.296560  20952.045055   -103.066373                    
V 15  15788.863590  21379.615022  -8427.108634      -.052345                    
P 16 -25364.921800  -2525.633565  -7737.805624    127.130255                    
V 16   9543.106686  -3464.604609 -29664.906138      -.012717                    
P 17  15590.853011  21603.842190    651.911672     39.488495                    
V 17  -2644.740627   1005.108774  31609.248216      -.003141                    
P 18   1014.394592 -15660.165576  21579.258526   -183.367942                    
V 18  26988.829449  -2079.220226  -3155.069547       .035614                    
P 19 -15783.832666   3232.010930  21230.292632     28.418424                    
V 19 -14295.648718 -22600.660171  -7040.065363       .010195                    
P 20 -17395.476642  13463.111624 -14971.135794    115.583646                    
V 20 -18995.461543    462.173208  22709.578134      -.008026                    
P 21   2622.992550 -24170.754522  10108.877990     65.878750                    
V 21   8493.542923 -10267.983371 -27838.932206      -.010173                    
P 22 -14086.616401 -12472.465177  18917.721237    210.826345                    
V 22  23514.043814  -3599.246219  15209.865894       .001930                    
P 23  -7976.312120  13641.335546 -21380.547363    350.302977                    
V 23 -16880.210308 -21075.689912  -7405.486083       .023522                    
P 24  12950.036377 -23221.711876  -2414.527131     89.631384                    
V 24   1139.045338   4137.743952 -31213.698154       .028940                    
P 25  -9262.671461  24861.851380  -2242.562920   -110.870834                    
V 25  -1485.290300  -3880.968221 -31553.146776      -.280472                    
P 26  17168.456254   2012.357421  19849.715913    241.062348                    
V 26  14396.603222  21699.259423 -13776.420572       .084066                    
P 27  -3010.697634  25299.913232   7887.379139    184.390812                    
V 27  -5237.619064   7866.499361 -29916.945727       .027454                    
P 28  12133.897309  12907.835063  20273.331242    -18.319845                    
V 28 -24573.784469   3401.236349  12455.333022      -.004984                    
P 29   -242.616716 -20364.257809 -16944.282512    -43.596816                    
V 29  14331.132357  16445.932392 -19802.835795       .003310                    
P 30   7580.860188 -15966.579863 -20131.199362     73.854005                    
V 30  24746.965923  -3027.584782  12021.005725       .017259                    
P 31 -11173.676491 -11139.175782 -21143.714651    -17.953565                    
V 31  10997.390184 -25026.831246   7406.677674      -.013368                    
P 32 -26365.646286   -666.633777   2746.000306    276.338661                    
V 32   2850.353040  -2771.941813  31801.105496       .061242                    
EOF
